satname,norad_id,inclination_deg,eccentricity,mean_motion_rev_per_day,perigee_km,apogee_km,l1,l2
STARLINK-1008,44714,53.1561,0.0002623,15.33222023,464.41140620603073,468.0019488992748,1 44714U 19074B   26091.67065515  .00070234  00000+0  21488-2 0  9994,2 44714  53.1561  71.7131 0002623  92.8525 267.2777 15.33222023352390
STARLINK-1012,44718,53.1606,0.0003115,15.32382005,466.57493573101146,470.84051999647,1 44718U 19074F   26091.66300523  .00067085  00000+0  21086-2 0  9992,2 44718  53.1606  71.9417 0003115  90.2131 269.9227 15.32382005352389
STARLINK-1017,44723,53.0487,0.0003011,15.261776,485.1844329101741,489.3187699259488,1 44723U 19074L   26091.34798537  .00049532  00000+0  18913-2 0  9991,2 44723  53.0487  66.7602 0003011 102.7040 257.4294 15.26177600352429
STARLINK-1019,44724,53.0406,0.000186,15.89157452,303.40089443946636,305.8868889311743,1 44724U 19074M   26091.83335647  .00243686  00000+0  80861-3 0  9993,2 44724  53.0406  19.7218 0001860 199.5491 237.4358 15.89157452  6052
STARLINK-1020,44725,53.1588,0.000241,15.31631018,469.295005780863,472.5962636107861,1 44725U 19074N   26091.71845940  .00060198  00000+0  19401-2 0  9999,2 44725  53.1588  96.8140 0002410  85.1660 274.9616 15.31631018352032
STARLINK-1031,44736,53.0339,0.0002648,16.07943184,250.73590206976496,254.24748302533771,1 44736U 19074Z   26091.46988617  .00668601  24006-3  79262-3 0  9993,2 44736  53.0339   2.6883 0002648 181.0321 179.0706 16.07943184353332
STARLINK-1036,44741,53.0465,0.0005155,15.60710522,382.116773536598,389.0901899732862,1 44741U 19074AE  26091.83335647  .00174026  00000+0  20185-2 0  9995,2 44741  53.0465  76.1138 0005155  45.5028 327.1230 15.60710522  5980
STARLINK-1039,44744,53.0591,0.0001218,15.23587701,494.1924198451552,495.8667232219814,1 44744U 19074AH  26091.32592388  .00042244  00000+0  17467-2 0  9994,2 44744  53.0591 110.9031 0001218 348.2528  11.8440 15.23587701351801
STARLINK-1042,44747,53.0452,0.0001485,15.51039452,412.68135849762984,414.6985311002363,1 44747U 19074AL  26090.95733552  .00028836  00000+0  49353-3 0  9996,2 44747  53.0452 347.8612 0001485 151.8205 208.2884 15.51039452353523
STARLINK-1043,44748,53.0508,0.0002638,15.55200405,399.7816525830567,403.3586260697657,1 44748U 19074AM  26091.67547110  .00034663  00000+0  50890-3 0  9993,2 44748  53.0508  83.4673 0002638  95.0333 265.0978 15.55200405352221
STARLINK-1046,44751,53.0512,0.0002134,15.45915734,427.23612072267133,430.1412739302905,1 44751U 19074AQ  26091.25410096  .00076092  00000+0  15329-2 0  9992,2 44751  53.0512 103.4307 0002134 285.0641  75.0129 15.45915734351909
STARLINK-1047,44752,53.0718,0.0001748,15.33099856,465.3738180110795,467.7667276736647,1 44752U 19074AR  26091.57785548  .00012527  00000+0  39709-3 0  9997,2 44752  53.0718  39.0410 0001748 334.8810  25.2105 15.33099856352859
STARLINK-1048,44753,53.0497,0.0002972,15.57853474,391.8579554989292,395.88323681408474,1 44753U 19074AS  26091.83335647  .00156381  00000+0  20271-2 0  9998,2 44753  53.0497  56.8592 0002972 100.0878 201.4354 15.57853474  5971
STARLINK-1063,44768,53.1575,0.0003132,15.32206175,467.08693347295593,471.37612511970656,1 44768U 19074BH  26091.86120357  .00064340  00000+0  20347-2 0  9994,2 44768  53.1575 111.6306 0003132  69.9433 290.1905 15.32206175351869
STARLINK-1067,44771,53.0474,0.0006524,15.61820815,377.98698265727944,386.80812814516776,1 44771U 19074BL  26091.83335647  .00174587  00000+0  19395-2 0  9991,2 44771  53.0474  91.5397 0006524  56.9135 318.1498 15.61820815  5958
STARLINK-1068,44772,53.0461,0.0004614,15.66965483,364.47948906968395,370.70444776173827,1 44772U 19074BM  26091.86065197  .00072757  00000+0  67101-3 0  9990,2 44772  53.0461  66.0850 0004614  32.3271 327.8026 15.66965483352475
STARLINK-1114,44927,53.0469,0.0004613,15.54449296,400.6254442394138,406.8824168119163,1 44927U 20001P   26091.85733725  .00110167  00000+0  16308-2 0  9992,2 44927  53.0469 217.8101 0004613 223.9086 136.1558 15.54449296343692
STARLINK-1123,44930,53.1471,0.0001795,15.30066495,474.3834720149043,476.8439685234807,1 44930U 20001S   26091.12114844  .00035272  00000+0  12023-2 0  9994,2 44930  53.1471 241.0632 0001795  18.3648 341.7417 15.30066495343302
STARLINK-1094,44941,53.1616,0.0001955,15.3165842,469.5249661610924,472.20292553091895,1 44941U 20001AD  26091.60360535  .00051007  00000+0  16463-2 0  9995,2 44941  53.1616 213.0710 0001955 309.0408  51.0420 15.31658420343742
STARLINK-1122,44949,53.1578,0.0001357,15.30202764,474.2768178700444,476.13681538187666,1 44949U 20001AM  26091.63529893  .00004130  00000+0  15148-3 0  9995,2 44949  53.1578 213.0268 0001357  89.5120 270.6036 15.30202764343749
STARLINK-1080,44961,53.0484,0.0002018,15.51159209,411.9698455556072,414.7108858203992,1 44961U 20001AZ  26091.38983135  .00082602  00000+0  13839-2 0  9998,2 44961  53.0484 179.4109 0002018 226.1104 133.9738 15.51159209344191
STARLINK-1090,44968,53.1529,0.0001321,15.30331447,473.9173444982125,475.7278964299394,1 44968U 20001BG  26090.30286385  .00031081  00000+0  10529-2 0  9997,2 44968  53.1529 206.1176 0001321   6.1730 353.9287 15.30331447343722
STARLINK-1132,45044,53.1547,0.0004453,15.46245806,424.68932763824523,430.75062386084755,1 45044U 20006A   26091.43268013  .00076484  00000+0  15231-2 0  9992,2 45044  53.1547 145.9654 0004453 328.9472  31.1272 15.46245806340441
STARLINK-1131,45047,53.1565,0.0001181,15.30650842,473.0600449541671,474.6784888344073,1 45047U 20006D   26091.52559147  .00050812  00000+0  16923-2 0  9992,2 45047  53.1565 174.9025 0001181  59.6645 300.4472 15.30650842340046
STARLINK-1134,45048,53.0304,0.0005174,15.46292356,424.0621051073613,431.104664561587,1 45048U 20006E   26091.39341414  .00066156  00000+0  13180-2 0  9994,2 45048  53.0304 130.1109 0005174 278.0423  81.9995 15.46292356340658
STARLINK-1156,45054,53.1604,0.0001302,15.30196799,474.33231936116044,476.11693472884326,1 45054U 20006L   26091.48716756  .00002078  00000+0  82268-4 0  9994,2 45054  53.1604 175.1010 0001302  84.6338 275.4812 15.30196799340031
STARLINK-1159,45057,53.0396,0.0003636,15.90338939,298.90499978304615,303.76231084359097,1 45057U 20006P   26091.83335647  .00243290  32788-4  78996-3 0  9990,2 45057  53.0396 117.6271 0003636  41.7045  16.3042 15.90338939  6050
STARLINK-1166,45060,53.0499,0.0002318,15.4901125,418.04153012797906,421.19296899807614,1 45060U 20006S   26091.70326302  .00090587  00000+0  16348-2 0  9996,2 45060  53.0499 162.7365 0002318 324.6799  35.4055 15.49011250340222
STARLINK-1169,45061,53.1574,0.000241,15.31621465,469.32347819890583,472.62474975584337,1 45061U 20006T   26091.51346376  .00030400  00000+0  98978-3 0  9997,2 45061  53.1574 174.9087 0002410  31.1323 328.9821 15.31621465340047
STARLINK-1171,45062,53.0427,0.0004149,15.66382133,366.46719043537814,372.06618601586706,1 45062U 20006U   26091.82857398  .00061617  00000+0  58343-3 0  9999,2 45062  53.0427 135.8963 0004149  36.2798 323.8497 15.66382133340616
STARLINK-1133,45064,53.1574,0.0001433,15.30214165,474.1906963179981,476.15485489968614,1 45064U 20006W   26091.85218721  .00002141  00000+0  84353-4 0  9993,2 45064  53.1574 150.2115 0001433  84.5758 275.5406 15.30214165340429
STARLINK-1167,45071,53.1589,0.0002903,15.31144425,470.4079262308196,474.38534605996574,1 45071U 20006AD  26091.42441374  .00053539  00000+0  17546-2 0  9991,2 45071  53.1589 152.2672 0002903  43.1738 316.9491 15.31144425340353
STARLINK-1168,45072,53.16,0.000126,15.30201244,474.347833169335,476.07487695481086,1 45072U 20006AE  26091.37604794  .00000977  00000+0  45112-4 0  9993,2 45072  53.1600 152.6316 0001260  70.3220 289.7917 15.30201244340341
STARLINK-1172,45074,53.1568,0.0002656,15.32196406,467.4419654879184,471.0793031112589,1 45074U 20006AG  26091.42446618  .00049147  00000+0  15607-2 0  9996,2 45074  53.1568 152.0813 0002656  38.0804 322.0385 15.32196406340357
STARLINK-1153,45080,53.1609,0.0003511,15.3125012,469.67628074492404,474.48650410008395,1 45080U 20006AN  26091.86540329  .00057461  00000+0  18751-2 0  9996,2 45080  53.1609 150.1342 0003511  45.1542 314.9744 15.31250120340425
STARLINK-1151,45081,53.051,0.0004455,15.6841549,360.43032043761195,366.4370599225631,1 45081U 20006AP  26091.78991266  .00065910  00000+0  57405-3 0  9996,2 45081  53.0510 126.1176 0004455  48.8140 311.3259 15.68415490340746
STARLINK-1185,45087,53.1614,0.0001411,15.38887635,448.43410220270107,450.3608324293773,1 45087U 20006AV  26091.50825008  .00013820  00000+0  36339-3 0  9998,2 45087  53.1614 135.7103 0001411  76.9537 283.1625 15.38887635340592
STARLINK-1183,45088,53.1578,0.0001082,15.30184382,474.52016460920004,476.00324008838834,1 45088U 20006AW  26091.41703978  .00000351  00000+0  23973-4 0  9996,2 45088  53.1578 137.0154 0001082  97.9386 262.1738 15.30184382340562
STARLINK-1152,45096,53.0374,0.0002824,15.41257659,440.47032567554015,444.3225629648923,1 45096U 20006BE  26091.24834111  .00054468  00000+0  12902-2 0  9996,2 45096  53.0374  99.8410 0002824 353.2606   6.8359 15.41257659341060
STARLINK-1184,45098,53.0524,0.000244,15.11423504,530.1718625308931,533.5439400427213,1 45098U 20006BG  26091.81938117  .00028630  00000+0  16856-2 0  9996,2 45098  53.0524 140.8682 0002440 199.0893 161.0007 15.11423504340531
STARLINK-1193,45100,53.05,0.0006076,15.59307697,385.5474088151959,393.7716351487088,1 45100U 20006BJ  26091.36053741  .00038605  00000+0  48523-3 0  9991,2 45100  53.0500 120.3551 0006076  44.9048 315.2455 15.59307697340789
STARLINK-1143,45179,53.0445,0.0004013,15.69020353,358.9962819967186,364.4056759586474,1 45179U 20012B   26091.83335647  .00223554  00000+0  18522-2 0  9998,2 45179  53.0445 216.2013 0004013 229.6226 313.7003 15.69020353  6008
STARLINK-1202,45183,53.1591,0.0001444,15.30199321,474.2274724601066,476.20672112325974,1 45183U 20012F   26091.87525193  .00000720  00000+0  36438-4 0  9990,2 45183  53.1591 291.5569 0001444  95.1300 264.9865 15.30199321338508
